NORAD_CAT_ID,OBJECT_NAME,OBJECT_TYPE,EPOCH,MEAN_MOTION,ECCENTRICITY,INCLINATION,RA_OF_ASC_NODE,ARG_OF_PERICENTER,MEAN_ANOMALY,BSTAR,MEAN_MOTION_DOT,MEAN_MOTION_DDOT,TLE_LINE0,TLE_LINE1,TLE_LINE2,SEMIMAJOR_AXIS,PERIOD,APOGEE,PERIGEE,DECAYED
54056.0,STARLINK-5226,PAYLOAD,2024-03-27 06:50:09,15.08834394,0.0001534,53.2162,302.3281,86.0338,274.0829,0.00041523,6.326e-05,0.0,0 STARLINK-5226,1 54056U 22136F   24087.28483279  .00006326  00000-0  41523-3 0  9993,2 54056  53.2162 302.3281 0001534  86.0338 274.0829 15.08834394 79295,6917.898,95.438,540.824,538.701,0.0
54056.0,STARLINK-5226,PAYLOAD,2024-03-27 21:08:38,15.08835014,0.0001505,53.2159,299.6518,80.2618,279.8544,0.00028407,4.235e-05,0.0,0 STARLINK-5226,1 54056U 22136F   24087.88099557  .00004235  00000-0  28407-3 0  9994,2 54056  53.2159 299.6518 0001505  80.2618 279.8544 15.08835014 79384,6917.896,95.438,540.802,538.719,0.0
54056.0,STARLINK-5226,PAYLOAD,2024-03-29 00:10:09,15.08873438,0.0001399,53.2166,294.5959,104.8105,255.3042,0.00052531,8.09e-05,0.0,0 STARLINK-5226,1 54056U 22136F   24089.00704930  .00008090  00000-0  52531-3 0  9996,2 54056  53.2166 294.5959 0001399 104.8105 255.3042 15.08873438 80038,6917.778,95.435,540.611,538.675,0.0
54056.0,STARLINK-5226,PAYLOAD,2024-03-29 12:53:15,15.08841118,0.0002888,53.2156,292.2142,81.0364,279.0955,-0.00013303,-2.405e-05,0.0,0 STARLINK-5226,1 54056U 22136F   24089.53698054 -.00002405  00000-0 -13303-3 0  9993,2 54056  53.2156 292.2142 0002888  81.0364 279.0955 15.08841118 80118,6917.877,95.437,541.74,537.744,0.0
54056.0,STARLINK-5226,PAYLOAD,2024-03-29 22:25:34,15.08831427,0.0002051,53.2174,290.4335,91.2475,268.8752,-0.00012644,-2.3e-05,0.0,0 STARLINK-5226,1 54056U 22136F   24089.93442494 -.00002300  00000-0 -12644-3 0  9993,2 54056  53.2174 290.4335 0002051  91.2475 268.8752 15.08831427 79694,6917.907,95.438,541.19,538.353,0.0
54056.0,STARLINK-5226,PAYLOAD,2024-03-30 12:44:03,15.08824832,0.00019,53.2189,287.7589,90.3485,269.7725,0.00020796,3.022e-05,0.0,0 STARLINK-5226,1 54056U 22136F   24090.53059042  .00003022  00000-0  20796-3 0  9991,2 54056  53.2189 287.7589 0001900  90.3485 269.7725 15.08824832 79785,6917.927,95.439,541.106,538.477,0.0
54056.0,STARLINK-5226,PAYLOAD,2024-03-30 20:40:58,15.08826923,0.0001462,53.2168,286.273,93.1372,266.9787,0.00023137,3.395e-05,0.0,0 STARLINK-5226,1 54056U 22136F   24090.86179231  .00003395  00000-0  23137-3 0  9995,2 54056  53.2168 286.2730 0001462  93.1372 266.9787 15.08826923 79839,6917.92,95.438,540.797,538.774,0.0
54056.0,STARLINK-5226,PAYLOAD,2024-03-31 12:34:50,15.08840149,0.0001543,53.2147,283.2969,86.6261,273.4908,0.00014533,2.026e-05,0.0,0 STARLINK-5226,1 54056U 22136F   24091.52418987  .00002026  00000-0  14533-3 0  9993,2 54056  53.2147 283.2969 0001543  86.6261 273.4908 15.08840149 80411,6917.88,95.438,540.812,538.678,0.0
54056.0,STARLINK-5226,PAYLOAD,2024-03-31 18:56:22,15.08842647,0.0001557,53.2166,282.1097,77.7886,282.3281,0.00038744,5.884e-05,0.0,0 STARLINK-5226,1 54056U 22136F   24091.78915259  .00005884  00000-0  38744-3 0  9990,2 54056  53.2166 282.1097 0001557  77.7886 282.3281 15.08842647 79978,6917.872,95.437,540.814,538.66,0.0
54056.0,STARLINK-5226,PAYLOAD,2024-04-01 12:25:37,15.08841697,0.000164,53.2172,278.8362,92.6606,267.4574,0.0001961,2.834e-05,0.0,0 STARLINK-5226,1 54056U 22136F   24092.51779398  .00002834  00000-0  19610-3 0  9997,2 54056  53.2172 278.8362 0001640  92.6606 267.4574 15.08841697 80561,6917.875,95.437,540.875,538.606,0.0
54056.0,STARLINK-5226,PAYLOAD,2024-04-02 12:16:24,15.08835884,0.0001348,53.2167,274.3746,97.9609,262.1536,9.5245e-05,1.228e-05,0.0,0 STARLINK-5226,1 54056U 22136F   24093.51139695  .00001228  00000-0  95245-4 0  9993,2 54056  53.2167 274.3746 0001348  97.9609 262.1536 15.08835884 80716,6917.893,95.438,540.691,538.825,0.0
54056.0,STARLINK-5226,PAYLOAD,2024-04-02 18:37:57,15.08841157,0.0001309,53.2164,273.1864,86.4277,273.6865,5.0134e-05,5.1e-06,0.0,0 STARLINK-5226,1 54056U 22136F   24093.77635497  .00000510  00000-0  50134-4 0  9993,2 54056  53.2164 273.1864 0001309  86.4277 273.6865 15.08841157 80275,6917.877,95.437,540.647,538.836,0.0
54056.0,STARLINK-5226,PAYLOAD,2024-04-03 12:07:11,15.08831312,0.0001281,53.2167,269.9153,91.9973,268.1165,0.00033324,5.018e-05,0.0,0 STARLINK-5226,1 54056U 22136F   24094.50499416  .00005018  00000-0  33324-3 0  9993,2 54056  53.2167 269.9153 0001281  91.9973 268.1165 15.08831312 80381,6917.907,95.438,540.658,538.886,0.0
54056.0,STARLINK-5226,PAYLOAD,2024-04-03 18:28:43,15.08848116,0.0001271,53.2168,268.7258,88.2479,271.8658,0.00016137,2.282e-05,0.0,0 STARLINK-5226,1 54056U 22136F   24094.76994742  .00002282  00000-0  16137-3 0  9996,2 54056  53.2168 268.7258 0001271  88.2479 271.8658 15.08848116 80900,6917.856,95.437,540.6,538.841,0.0
54056.0,STARLINK-5226,PAYLOAD,2024-04-03 21:39:25,15.08900308,0.0001081,53.2166,268.1307,113.831,246.2795,0.00059747,9.249e-05,0.0,0 STARLINK-5226,1 54056U 22136F   24094.90238085  .00009249  00000-0  59747-3 0  9997,2 54056  53.2166 268.1307 0001081 113.8310 246.2795 15.08900308 80444,6917.696,95.434,540.309,538.813,0.0
54056.0,STARLINK-5226,PAYLOAD,2024-04-04 04:00:49,15.09001041,9.62e-05,53.2163,266.9404,108.8215,251.2882,0.0014121,0.00022356,0.0,0 STARLINK-5226,1 54056U 22136F   24095.16724124  .00022356  00000-0  14121-2 0  9990,2 54056  53.2163 266.9404 0000962 108.8215 251.2882 15.09001041 80967,6917.388,95.427,539.919,538.588,0.0
54056.0,STARLINK-5226,PAYLOAD,2024-04-04 11:57:29,15.09168773,8.97e-05,53.2168,265.4508,58.3092,301.7987,0.0026712,0.00042869,0.0,0 STARLINK-5226,1 54056U 22136F   24095.49825938  .00042869  00000-0  26712-2 0  9991,2 54056  53.2168 265.4508 0000897  58.3092 301.7987 15.09168773 81010,6916.876,95.417,539.361,538.12,0.0
54056.0,STARLINK-5226,PAYLOAD,2024-04-04 15:08:04,15.09302666,0.0001302,53.2168,264.8551,95.8088,264.3053,0.0037167,0.00060127,0.0,0 STARLINK-5226,1 54056U 22136F   24095.63060355  .00060127  00000-0  37167-2 0  9994,2 54056  53.2168 264.8551 0001302  95.8088 264.3053 15.09302666 80551,6916.467,95.408,539.232,537.431,0.0
54056.0,STARLINK-5226,PAYLOAD,2024-04-04 16:43:22,15.09352535,0.0001683,53.2167,264.5576,125.7045,234.4104,0.0040896,0.00066338,0.0,0 STARLINK-5226,1 54056U 22136F   24095.69678748  .00066338  00000-0  40896-2 0  9994,2 54056  53.2167 264.5576 0001683 125.7045 234.4104 15.09352535 81042,6916.314,95.405,539.343,537.015,0.0
54056.0,STARLINK-5226,PAYLOAD,2024-04-05 03:50:45,15.09695135,6.68e-05,53.2159,262.4761,95.246,264.8609,0.0090897,0.00150993,0.0,0 STARLINK-5226,1 54056U 22136F   24096.16025346  .00150993  00000-0  90897-2 0  9994,2 54056  53.2159 262.4761 0000668  95.2460 264.8609 15.09695135 81111,6915.268,95.383,537.595,536.671,0.0
54056.0,STARLINK-5226,PAYLOAD,2024-04-05 14:00:01,15.10484178,0.000101,53.2153,260.5737,89.2475,52.1708,-0.0017202,-0.00028821,0.0,0 STARLINK-5226,1 54056U 22136F   24096.58334491 -.00028821  00000-0 -17202-2 0  9999,2 54056  53.2153 260.5737 0001010  89.2475  52.1708 15.10484178 81188,6912.859,95.334,535.423,534.026,0.0
54056.0,STARLINK-5226,PAYLOAD,2024-04-05 22:00:00,15.10424418,8.77e-05,53.2148,259.0746,86.4589,68.539,0.0037185,0.00062064,0.0,0 STARLINK-5226,1 54056U 22136F   24096.91667824  .00062064  00000-0  37185-2 0  9992,2 54056  53.2148 259.0746 0000877  86.4589  68.5390 15.10424418  5871,6913.042,95.337,535.513,534.3,0.0
54056.0,STARLINK-5226,PAYLOAD,2024-04-06 06:00:00,15.10453565,8.76e-05,53.2148,257.5726,95.8297,72.7101,0.0024417,0.00040562,0.0,0 STARLINK-5226,1 54056U 22136F   24097.25001157  .00040562  00000-0  24417-2 0  9994,2 54056  53.2148 257.5726 0000876  95.8297  72.7101 15.10453565 81282,6912.953,95.336,535.423,534.212,0.0
54056.0,STARLINK-5226,PAYLOAD,2024-04-06 14:00:01,15.10512312,9.5e-05,53.2149,256.0731,96.017,86.0682,-0.0029073,-0.00048414,0.0,0 STARLINK-5226,1 54056U 22136F   24097.58334491 -.00048414  00000-0 -29073-2 0  9999,2 54056  53.2149 256.0731 0000950  96.0170  86.0682 15.10512312  5722,6912.774,95.332,535.295,533.982,0.0
54056.0,STARLINK-5226,PAYLOAD,2024-04-06 22:00:00,15.10449615,8.76e-05,53.2145,254.5737,86.7944,108.8831,0.001873,0.00031002,0.0,0 STARLINK-5226,1 54056U 22136F   24097.91667824  .00031002  00000-0  18730-2 0  9996,2 54056  53.2145 254.5737 0000876  86.7944 108.8831 15.10449615 81389,6912.965,95.336,535.435,534.224,0.0
54056.0,STARLINK-5226,PAYLOAD,2024-04-07 14:00:01,15.10512052,8.92e-05,53.2147,251.5723,94.6963,128.0702,-0.0038362,-0.00063653,0.0,0 STARLINK-5226,1 54056U 22136F   24098.58334491 -.00063653  00000-0 -38362-2 0  9993,2 54056  53.2147 251.5723 0000892  94.6963 128.0702 15.10512052  5877,6912.774,95.332,535.256,534.023,0.0
54056.0,STARLINK-5226,PAYLOAD,2024-04-07 22:00:00,15.10448754,8.48e-05,53.2145,250.0728,77.9873,158.3438,0.0023696,0.00039344,0.0,0 STARLINK-5226,1 54056U 22136F   24098.91667824  .00039344  00000-0  23696-2 0  9991,2 54056  53.2145 250.0728 0000848  77.9873 158.3438 15.10448754 81535,6912.967,95.336,535.419,534.246,0.0
54056.0,STARLINK-5226,PAYLOAD,2024-04-08 14:00:01,15.10515819,9.43e-05,53.215,247.0714,84.6403,178.7896,-0.0036484,-0.00060584,0.0,0 STARLINK-5226,1 54056U 22136F   24099.58334491 -.00060584  00000-0 -36484-2 0  9997,2 54056  53.2150 247.0714 0000943  84.6403 178.7896 15.10515819 81634,6912.763,95.332,535.28,533.976,0.0
54056.0,STARLINK-5226,PAYLOAD,2024-04-09 00:00:02,15.10469602,0.0001018,53.2151,245.1961,76.4674,293.9987,-0.00040181,-6.974e-05,0.0,0 STARLINK-5226,1 54056U 22136F   24100.00002315 -.00006974  00000-0 -40181-3 0  9997,2 54056  53.2151 245.1961 0001018  76.4674 293.9987 15.10469602  5647,6912.904,95.335,535.473,534.065,0.0
54056.0,STARLINK-5226,PAYLOAD,2024-04-09 19:00:41,15.10477927,0.0001389,53.2147,241.6319,77.1862,282.9286,0.00015356,2.265e-05,0.0,0 STARLINK-5226,1 54056U 22136F   24100.79214195  .00002265  00000-0  15356-3 0  9997,2 54056  53.2147 241.6319 0001389  77.1862 282.9286 15.10477927 81810,6912.878,95.334,535.704,533.783,0.0
